[{"OBJECT_NAME":"STARLINK-2513","OBJECT_ID":"2021-036AT","EPOCH":"2026-03-09T10:54:03.362112","MEAN_MOTION":15.30197812,"ECCENTRICITY":0.00012981,"INCLINATION":53.161,"RA_OF_ASC_NODE":89.2681,"ARG_OF_PERICENTER":70.5167,"MEAN_ANOMALY":289.5974,"EPHEMERIS_TYPE":0,"CLASSIFICATION_TYPE":"U","NORAD_CAT_ID":48317,"ELEMENT_SET_NO":999,"REV_AT_EPOCH":26818,"BSTAR":9.685289e-6,"MEAN_MOTION_DOT":-7.2e-7,"MEAN_MOTION_DDOT":0},{"OBJECT_NAME":"PROTOMETHEE","OBJECT_ID":"2023-174BT","EPOCH":"2026-03-09T23:28:08.029344","MEAN_MOTION":15.30202663,"ECCENTRICITY":0.00088339,"INCLINATION":97.3826,"RA_OF_ASC_NODE":147.9552,"ARG_OF_PERICENTER":148.5993,"MEAN_ANOMALY":211.5776,"EPHEMERIS_TYPE":0,"CLASSIFICATION_TYPE":"U","NORAD_CAT_ID":58321,"ELEMENT_SET_NO":999,"REV_AT_EPOCH":12979,"BSTAR":0.00015715731,"MEAN_MOTION_DOT":4.52e-5,"MEAN_MOTION_DDOT":0}]
